[{"OBJECT_NAME":"TIANMU-1 19","OBJECT_ID":"2023-208A","EPOCH":"2026-03-09T22:13:36.801696","MEAN_MOTION":15.2984143,"ECCENTRICITY":0.00039292,"INCLINATION":97.4383,"RA_OF_ASC_NODE":184.9132,"ARG_OF_PERICENTER":316.2611,"MEAN_ANOMALY":43.8317,"EPHEMERIS_TYPE":0,"CLASSIFICATION_TYPE":"U","NORAD_CAT_ID":58660,"ELEMENT_SET_NO":999,"REV_AT_EPOCH":12214,"BSTAR":0.00040995676,"MEAN_MOTION_DOT":0.00011779,"MEAN_MOTION_DDOT":0},{"OBJECT_NAME":"STARLINK-32475","OBJECT_ID":"2024-196X","EPOCH":"2026-03-09T11:13:08.402304","MEAN_MOTION":15.30170416,"ECCENTRICITY":6.652e-5,"INCLINATION":53.1598,"RA_OF_ASC_NODE":102.2923,"ARG_OF_PERICENTER":86.1728,"MEAN_ANOMALY":273.9349,"EPHEMERIS_TYPE":0,"CLASSIFICATION_TYPE":"U","NORAD_CAT_ID":61728,"ELEMENT_SET_NO":999,"REV_AT_EPOCH":7712,"BSTAR":-5.7125116e-5,"MEAN_MOTION_DOT":-2.048e-5,"MEAN_MOTION_DDOT":0}]
